[{"OBJECT_NAME":"STARLINK-5835","OBJECT_ID":"2023-028AH","EPOCH":"2026-03-09T22:00:01.999584","MEAN_MOTION":14.98332313,"ECCENTRICITY":0.00030417,"INCLINATION":70.001,"RA_OF_ASC_NODE":223.763,"ARG_OF_PERICENTER":274.9702,"MEAN_ANOMALY":315.6363,"EPHEMERIS_TYPE":0,"CLASSIFICATION_TYPE":"U","NORAD_CAT_ID":55772,"ELEMENT_SET_NO":999,"REV_AT_EPOCH":575,"BSTAR":0.0011680208,"MEAN_MOTION_DOT":0.00013872,"MEAN_MOTION_DDOT":0},{"OBJECT_NAME":"COSMOS 2251 DEB","OBJECT_ID":"1993-036BYJ","EPOCH":"2026-02-27T08:25:05.077344","MEAN_MOTION":15.02778291,"ECCENTRICITY":0.0017194,"INCLINATION":74.0208,"RA_OF_ASC_NODE":84.7822,"ARG_OF_PERICENTER":181.9976,"MEAN_ANOMALY":194.0424,"EPHEMERIS_TYPE":0,"CLASSIFICATION_TYPE":"U","NORAD_CAT_ID":47116,"ELEMENT_SET_NO":999,"REV_AT_EPOCH":60660,"BSTAR":0.0017596726,"MEAN_MOTION_DOT":0.00023658,"MEAN_MOTION_DDOT":0}]
